{"type": "FeatureCollection", "features": [ {"type": "Feature", "properties": {"norad_id": 35475, "name": "COSMOS 2251 DEB", "group": "cosmos-2251-debris", "lat": 15.421605152345021, "lon": 140.6781597475853, "alt_km": 674.8841317055167, "timestamp": "2025-12-27T22:26:48.996747+00:00", "meta": {"OBJECT_NAME": "COSMOS 2251 DEB", "OBJECT_ID": "1993-036ALV", "EPOCH": "2025-12-26T15:20:30.310944", "MEAN_MOTION": 14.70039773, "ECCENTRICITY": 0.0019833, "INCLINATION": 74.022, "RA_OF_ASC_NODE": 138.659, "ARG_OF_PERICENTER": 211.7457, "MEAN_ANOMALY": 148.252, "EPHEMERIS_TYPE": 0, "CLASSIFICATION_TYPE": "U", "NORAD_CAT_ID": 35475, "ELEMENT_SET_NO": 999, "REV_AT_EPOCH": 65821, "BSTAR": 0.0022731, "MEAN_MOTION_DOT": 0.00013682, "MEAN_MOTION_DDOT": 0}, "tle": {"line1": "1 35475U 93036ALV 25360.63923971  .00013682  00000+0  22731-2 0  9997", "line2": "2 35475  74.0220 138.6590 0019833 211.7457 148.2520 14.70039773658219"}}, "geometry": {"type": "Point", "coordinates": [140.6781597475853, 15.421605152345021]}}, {"type": "Feature", "properties": {"norad_id": 35476, "name": "COSMOS 2251 DEB", "group": "cosmos-2251-debris", "lat": -6.681019353178428, "lon": -146.99747763755752, "alt_km": 658.5695948309094, "timestamp": "2025-12-27T22:26:48.996757+00:00", "meta": {"OBJECT_NAME": "COSMOS 2251 DEB", "OBJECT_ID": "1993-036ALW", "EPOCH": "2025-12-27T08:39:37.863360", "MEAN_MOTION": 14.75980797, "ECCENTRICITY": 0.0018647, "INCLINATION": 73.9779, "RA_OF_ASC_NODE": 32.2014, "ARG_OF_PERICENTER": 7.8841, "MEAN_ANOMALY": 7.9295, "EPHEMERIS_TYPE": 0, "CLASSIFICATION_TYPE": "U", "NORAD_CAT_ID": 35476, "ELEMENT_SET_NO": 999, "REV_AT_EPOCH": 88103, "BSTAR": 0.0018196, "MEAN_MOTION_DOT": 0.0001255, "MEAN_MOTION_DDOT": 0}, "tle": {"line1": "1 35476U 93036ALW 25361.36085490  .00012550  00000+0  18196-2 0  9997", "line2": "2 35476  73.9779  32.2014 0018647   7.8841   7.9295 14.75980797881034"}}, "geometry": {"type": "Point", "coordinates": [-146.99747763755752, -6.681019353178428]}}, {"type": "Feature", "properties": {"norad_id": 35580, "name": "COSMOS 2251 DEB", "group": "cosmos-2251-debris", "lat": -52.456202884272145, "lon": 130.81136076894003, "alt_km": 1131.4593082487727, "timestamp": "2025-12-27T22:26:48.996766+00:00", "meta": {"OBJECT_NAME": "COSMOS 2251 DEB", "OBJECT_ID": "1993-036ALX", "EPOCH": "2025-12-27T03:38:47.457888", "MEAN_MOTION": 13.83953444, "ECCENTRICITY": 0.02803092, "INCLINATION": 73.9018, "RA_OF_ASC_NODE": 154.2138, "ARG_OF_PERICENTER": 156.6892, "MEAN_ANOMALY": 204.724, "EPHEMERIS_TYPE": 0, "CLASSIFICATION_TYPE": "U", "NORAD_CAT_ID": 35580, "ELEMENT_SET_NO": 999, "REV_AT_EPOCH": 62456, "BSTAR": 0.0026232505, "MEAN_MOTION_DOT": 3.926e-05, "MEAN_MOTION_DDOT": 0}, "tle": {"line1": "1 35580U 93036ALX 25361.15193817  .00003926  00000+0  26233-2 0  9991", "line2": "2 35580  73.9018 154.2138 0280309 156.6892 204.7240 13.83953444624560"}}, "geometry": {"type": "Point", "coordinates": [130.81136076894003, -52.456202884272145]}}, {"type": "Feature", "properties": {"norad_id": 35583, "name": "COSMOS 2251 DEB", "group": "cosmos-2251-debris", "lat": -56.24744715628281, "lon": 32.96845231392966, "alt_km": 811.0592818404275, "timestamp": "2025-12-27T22:26:48.996776+00:00", "meta": {"OBJECT_NAME": "COSMOS 2251 DEB", "OBJECT_ID": "1993-036AMA", "EPOCH": "2025-12-25T05:29:42.958752", "MEAN_MOTION": 13.55357514, "ECCENTRICITY": 0.0384921, "INCLINATION": 73.9156, "RA_OF_ASC_NODE": 191.7748, "ARG_OF_PERICENTER": 213.8276, "MEAN_ANOMALY": 143.7737, "EPHEMERIS_TYPE": 0, "CLASSIFICATION_TYPE": "U", "NORAD_CAT_ID": 35583, "ELEMENT_SET_NO": 999, "REV_AT_EPOCH": 82581, "BSTAR": 0.00086553, "MEAN_MOTION_DOT": 9.41e-06, "MEAN_MOTION_DDOT": 0}, "tle": {"line1": "1 35583U 93036AMA 25359.22896943  .00000941  00000+0  86553-3 0  9995", "line2": "2 35583  73.9156 191.7748 0384921 213.8276 143.7737 13.55357514825815"}}, "geometry": {"type": "Point", "coordinates": [32.96845231392966, -56.24744715628281]}}, {"type": "Feature", "properties": {"norad_id": 35585, "name": "COSMOS 2251 DEB", "group": "cosmos-2251-debris", "lat": -18.33598504676984, "lon": 148.50606235629095, "alt_km": 792.3620859078828, "timestamp": "2025-12-27T22:26:48.996786+00:00", "meta": {"OBJECT_NAME": "COSMOS 2251 DEB", "OBJECT_ID": "1993-036AMC", "EPOCH": "2025-12-27T06:04:47.108064", "MEAN_MOTION": 13.75285255, "ECCENTRICITY": 0.0310141, "INCLINATION": 73.972, "RA_OF_ASC_NODE": 324.1776, "ARG_OF_PERICENTER": 233.5607, "MEAN_ANOMALY": 192.1911, "EPHEMERIS_TYPE": 0, "CLASSIFICATION_TYPE": "U", "NORAD_CAT_ID": 35585, "ELEMENT_SET_NO": 999, "REV_AT_EPOCH": 64263, "BSTAR": 0.00094745, "MEAN_MOTION_DOT": 1.266e-05, "MEAN_MOTION_DDOT": 0}, "tle": {"line1": "1 35585U 93036AMC 25361.25332301  .00001266  00000+0  94745-3 0  9999", "line2": "2 35585  73.9720 324.1776 0310141 233.5607 192.1911 13.75285255642630"}}, "geometry": {"type": "Point", "coordinates": [148.50606235629095, -18.33598504676984]}}, {"type": "Feature", "properties": {"norad_id": 35586, "name": "COSMOS 2251 DEB", "group": "cosmos-2251-debris", "lat": -25.32727057950853, "lon": 105.92853619695455, "alt_km": 893.7224307385313, "timestamp": "2025-12-27T22:26:48.996796+00:00", "meta": {"OBJECT_NAME": "COSMOS 2251 DEB", "OBJECT_ID": "1993-036AMD", "EPOCH": "2025-12-26T12:34:40.833408", "MEAN_MOTION": 13.5209486, "ECCENTRICITY": 0.0404139, "INCLINATION": 74.0201, "RA_OF_ASC_NODE": 280.3945, "ARG_OF_PERICENTER": 152.7777, "MEAN_ANOMALY": 23.2121, "EPHEMERIS_TYPE": 0, "CLASSIFICATION_TYPE": "U", "NORAD_CAT_ID": 35586, "ELEMENT_SET_NO": 999, "REV_AT_EPOCH": 60568, "BSTAR": 0.00041333, "MEAN_MOTION_DOT": 4.35e-06, "MEAN_MOTION_DDOT": 0}, "tle": {"line1": "1 35586U 93036AMD 25360.52408372  .00000435  00000+0  41333-3 0  9993", "line2": "2 35586  74.0201 280.3945 0404139 152.7777  23.2121 13.52094860605685"}}, "geometry": {"type": "Point", "coordinates": [105.92853619695455, -25.32727057950853]}}, {"type": "Feature", "properties": {"norad_id": 35587, "name": "COSMOS 2251 DEB", "group": "cosmos-2251-debris", "lat": 57.48374558323316, "lon": -177.90775643485017, "alt_km": 654.9919735118629, "timestamp": "2025-12-27T22:26:48.996806+00:00", "meta": {"OBJECT_NAME": "COSMOS 2251 DEB", "OBJECT_ID": "1993-036AME", "EPOCH": "2025-12-24T09:03:29.515680", "MEAN_MOTION": 14.7155971, "ECCENTRICITY": 0.01022451, "INCLINATION": 74.0058, "RA_OF_ASC_NODE": 35.7588, "ARG_OF_PERICENTER": 220.8718, "MEAN_ANOMALY": 138.4757, "EPHEMERIS_TYPE": 0, "CLASSIFICATION_TYPE": "U", "NORAD_CAT_ID": 35587, "ELEMENT_SET_NO": 999, "REV_AT_EPOCH": 66517, "BSTAR": 0.00025641607, "MEAN_MOTION_DOT": 1.692e-05, "MEAN_MOTION_DDOT": 0}, "tle": {"line1": "1 35587U 93036AME 25358.37742495  .00001692  00000+0  25642-3 0  9992", "line2": "2 35587  74.0058  35.7588 0102245 220.8718 138.4757 14.71559710665172"}}, "geometry": {"type": "Point", "coordinates": [-177.90775643485017, 57.48374558323316]}}, {"type": "Feature", "properties": {"norad_id": 35593, "name": "COSMOS 2251 DEB", "group": "cosmos-2251-debris", "lat": -72.01655560363831, "lon": 142.61797799517444, "alt_km": 737.846297863739, "timestamp": "2025-12-27T22:26:48.996815+00:00", "meta": {"OBJECT_NAME": "COSMOS 2251 DEB", "OBJECT_ID": "1993-036AML", "EPOCH": "2025-12-24T00:35:28.875264", "MEAN_MOTION": 14.25635831, "ECCENTRICITY": 0.01050685, "INCLINATION": 74.0857, "RA_OF_ASC_NODE": 268.1373, "ARG_OF_PERICENTER": 272.0988, "MEAN_ANOMALY": 86.8131, "EPHEMERIS_TYPE": 0, "CLASSIFICATION_TYPE": "U", "NORAD_CAT_ID": 35593, "ELEMENT_SET_NO": 999, "REV_AT_EPOCH": 85226, "BSTAR": 0.00070261528, "MEAN_MOTION_DOT": 1.738e-05, "MEAN_MOTION_DDOT": 0}, "tle": {"line1": "1 35593U 93036AML 25358.02463976  .00001738  00000+0  70262-3 0  9994", "line2": "2 35593  74.0857 268.1373 0105068 272.0988  86.8131 14.25635831852262"}}, "geometry": {"type": "Point", "coordinates": [142.61797799517444, -72.01655560363831]}}, {"type": "Feature", "properties": {"norad_id": 35594, "name": "COSMOS 2251 DEB", "group": "cosmos-2251-debris", "lat": 21.487845444215818, "lon": 82.36919469565447, "alt_km": 621.7878000685314, "timestamp": "2025-12-27T22:26:48.996825+00:00", "meta": {"OBJECT_NAME": "COSMOS 2251 DEB", "OBJECT_ID": "1993-036AMM", "EPOCH": "2025-12-24T13:41:05.114112", "MEAN_MOTION": 14.88271884, "ECCENTRICITY": 0.00288579, "INCLINATION": 73.806, "RA_OF_ASC_NODE": 82.6068, "ARG_OF_PERICENTER": 193.3523, "MEAN_ANOMALY": 166.6896, "EPHEMERIS_TYPE": 0, "CLASSIFICATION_TYPE": "U", "NORAD_CAT_ID": 35594, "ELEMENT_SET_NO": 999, "REV_AT_EPOCH": 88361, "BSTAR": 0.0016876649, "MEAN_MOTION_DOT": 0.00015714, "MEAN_MOTION_DDOT": 0}, "tle": {"line1": "1 35594U 93036AMM 25358.57019808  .00015714  00000+0  16877-2 0  9996", "line2": "2 35594  73.8060  82.6068 0028857 193.3523 166.6896 14.88271884883617"}}, "geometry": {"type": "Point", "coordinates": [82.36919469565447, 21.487845444215818]}}, {"type": "Feature", "properties": {"norad_id": 35602, "name": "COSMOS 2251 DEB", "group": "cosmos-2251-debris", "lat": -12.208399815424633, "lon": -26.92212392924143, "alt_km": 406.29106066842905, "timestamp": "2025-12-27T22:26:48.996835+00:00", "meta": {"OBJECT_NAME": "COSMOS 2251 DEB", "OBJECT_ID": "1993-036AMV", "EPOCH": "2025-12-26T19:19:37.155360", "MEAN_MOTION": 15.35665906, "ECCENTRICITY": 0.00877374, "INCLINATION": 73.9943, "RA_OF_ASC_NODE": 151.9485, "ARG_OF_PERICENTER": 214.5989, "MEAN_ANOMALY": 213.8576, "EPHEMERIS_TYPE": 0, "CLASSIFICATION_TYPE": "U", "NORAD_CAT_ID": 35602, "ELEMENT_SET_NO": 999, "REV_AT_EPOCH": 90307, "BSTAR": 0.00067564138, "MEAN_MOTION_DOT": 0.00026679, "MEAN_MOTION_DDOT": 0}, "tle": {"line1": "1 35602U 93036AMV 25360.80529115  .00026679  00000+0  67564-3 0  9994", "line2": "2 35602  73.9943 151.9485 0087737 214.5989 213.8576 15.35665906903073"}}, "geometry": {"type": "Point", "coordinates": [-26.92212392924143, -12.208399815424633]}}]}